GLOBALSTAR M057         
1 25943U 99058A   24122.89324026 -.00000054  00000+0  35342-3 0  9998
2 25943  51.9985  75.4080 0001946 250.2303 109.8337 12.24785773116534
GLOBALSTAR M059         
1 25944U 99058B   24122.79247934 -.00000085  00000+0  12586-4 0  9990
2 25944  52.0014 240.1095 0000826 166.4209   1.2824 11.99960574524653
GLOBALSTAR M056         
1 25945U 99058C   24122.77176722 -.00000002  00000+0  99515-3 0  9990
2 25945  51.9957 252.6912 0001531  97.3172  55.0299 12.04776039113036
GLOBALSTAR M031         
1 25946U 99058D   24122.93078346 -.00000025  00000+0  66635-3 0  9994
2 25946  51.9940 169.1974 0001408  72.6942 344.8484 12.16008161114519
GLOBALSTAR M039         
1 25961U 99062A   24123.13492131 -.00000059  00000+0  25028-3 0  9999
2 25961  51.9842  80.6599 0002636 148.0599 212.0428 12.62289462128332
GLOBALSTAR M034         
1 25962U 99062B   24122.90713067 -.00000037  00000+0  70325-3 0  9994
2 25962  51.9900   0.4589 0014014 347.7692  24.6980 11.79428095 89860
GLOBALSTAR M029         
1 25963U 99062C   24123.16930399 -.00000065  00000+0  25966-3 0  9995
2 25963  51.9766 127.4781 0002606  29.1600  48.5600 11.99877303119836
GLOBALSTAR M061         
1 25964U 99062D   24122.92193625 -.00000060  00000+0  32691-3 0  9990
2 25964  51.9772 179.0060 0006053 268.9786 142.6397 11.76761675 72763
